NORAD_CAT_ID,OBJECT_NAME,OBJECT_TYPE,EPOCH,MEAN_MOTION,ECCENTRICITY,INCLINATION,RA_OF_ASC_NODE,ARG_OF_PERICENTER,MEAN_ANOMALY,BSTAR,MEAN_MOTION_DOT,MEAN_MOTION_DDOT,TLE_LINE0,TLE_LINE1,TLE_LINE2,SEMIMAJOR_AXIS,PERIOD,APOGEE,PERIGEE,DECAYED
54065.0,STARLINK-5187,PAYLOAD,2023-09-17 11:55:19,15.0884285,0.0001214,53.2179,83.0504,89.3536,270.7595,0.00014767,2.063e-05,0.0,0 STARLINK-5187,1 54065U 22136Q   23260.49675182  .00002063  00000-0  14767-3 0  9998,2 54065  53.2179  83.0504 0001214  89.3536 270.7595 15.08842850 50349,6917.872,95.437,540.577,538.897,0.0
54065.0,STARLINK-5187,PAYLOAD,2023-09-17 18:16:51,15.08848675,0.0001267,53.2185,81.8617,90.3116,269.8021,0.00011058,1.473e-05,0.0,0 STARLINK-5187,1 54065U 22136Q   23260.76170786  .00001473  00000-0  11058-3 0  9992,2 54065  53.2185  81.8617 0001267  90.3116 269.8021 15.08848675 50862,6917.854,95.437,540.595,538.842,0.0
54065.0,STARLINK-5187,PAYLOAD,2023-09-18 05:24:33,15.08844013,0.0001177,53.2169,79.7791,82.8014,277.3112,9.6623e-05,1.25e-05,0.0,0 STARLINK-5187,1 54065U 22136Q   23261.22538900  .00001250  00000-0  96623-4 0  9995,2 54065  53.2169  79.7791 0001177  82.8014 277.3112 15.08844013 50931,6917.868,95.437,540.547,538.919,0.0
54065.0,STARLINK-5187,PAYLOAD,2023-09-18 11:46:06,15.0884002,0.0001183,53.2184,78.5906,88.0984,272.0143,0.00010831,1.436e-05,0.0,0 STARLINK-5187,1 54065U 22136Q   23261.49035259  .00001436  00000-0  10831-3 0  9995,2 54065  53.2184  78.5906 0001183  88.0984 272.0143 15.08840020 50495,6917.88,95.438,540.564,538.927,0.0
54065.0,STARLINK-5187,PAYLOAD,2023-09-18 18:07:38,15.08842254,0.0001195,53.2187,77.4006,94.2673,265.8456,8.6155e-05,1.084e-05,0.0,0 STARLINK-5187,1 54065U 22136Q   23261.75531138  .00001084  00000-0  86155-4 0  9993,2 54065  53.2187  77.4006 0001195  94.2673 265.8456 15.08842254 50537,6917.873,95.437,540.565,538.912,0.0
54065.0,STARLINK-5187,PAYLOAD,2023-09-19 17:58:25,15.08853208,0.0001307,53.2177,72.9388,93.3444,266.7698,0.00016689,2.37e-05,0.0,0 STARLINK-5187,1 54065U 22136Q   23262.74890341  .00002370  00000-0  16689-3 0  9990,2 54065  53.2177  72.9388 0001307  93.3444 266.7698 15.08853208 51169,6917.84,95.437,540.609,538.801,0.0
54065.0,STARLINK-5187,PAYLOAD,2023-09-20 11:27:40,15.08834654,0.0001358,53.2169,69.6685,87.2631,272.8517,3.8092e-05,3.18e-06,0.0,0 STARLINK-5187,1 54065U 22136Q   23263.47755542  .00000318  00000-0  38092-4 0  9997,2 54065  53.2169  69.6685 0001358  87.2631 272.8517 15.08834654 51273,6917.897,95.438,540.701,538.822,0.0
54065.0,STARLINK-5187,PAYLOAD,2023-09-20 14:38:27,15.08832328,0.0001404,53.2175,69.0734,87.6204,272.4949,2.2516e-06,-2.52e-06,0.0,0 STARLINK-5187,1 54065U 22136Q   23263.61003748 -.00000252  00000-0  22516-5 0  9990,2 54065  53.2175  69.0734 0001404  87.6204 272.4949 15.08832328 50811,6917.904,95.438,540.74,538.798,0.0
54065.0,STARLINK-5187,PAYLOAD,2023-09-20 17:49:13,15.08829585,0.0001323,53.2174,68.4791,80.4752,279.6389,-6.0061e-05,-1.243e-05,0.0,0 STARLINK-5187,1 54065U 22136Q   23263.74251974 -.00001243  00000-0 -60061-4 0  9998,2 54065  53.2174  68.4791 0001323  80.4752 279.6389 15.08829585 50835,6917.912,95.438,540.692,538.862,0.0
54065.0,STARLINK-5187,PAYLOAD,2023-09-21 11:18:28,15.08838718,0.0001213,53.2173,65.2074,77.7425,282.3703,6.9868e-05,8.24e-06,0.0,0 STARLINK-5187,1 54065U 22136Q   23264.47115771  .00000824  00000-0  69868-4 0  9999,2 54065  53.2173  65.2074 0001213  77.7425 282.3703 15.08838718 50948,6917.884,95.438,540.588,538.91,0.0
54065.0,STARLINK-5187,PAYLOAD,2023-09-21 17:40:00,15.08847935,0.0001241,53.2174,64.0185,77.1608,282.9523,0.00021634,3.158e-05,0.0,0 STARLINK-5187,1 54065U 22136Q   23264.73611344  .00003158  00000-0  21634-3 0  9996,2 54065  53.2174  64.0185 0001241  77.1608 282.9523 15.08847935 51462,6917.856,95.437,540.58,538.863,0.0
54065.0,STARLINK-5187,PAYLOAD,2023-09-21 20:50:46,15.08852461,0.0001214,53.2174,63.4234,75.2316,284.881,0.00026545,3.941e-05,0.0,0 STARLINK-5187,1 54065U 22136Q   23264.86859138  .00003941  00000-0  26545-3 0  9991,2 54065  53.2174  63.4234 0001214  75.2316 284.8810 15.08852461 51005,6917.842,95.437,540.547,538.867,0.0
54065.0,STARLINK-5187,PAYLOAD,2023-09-22 03:12:19,15.08845337,0.0001255,53.2174,62.2345,70.8347,289.2781,0.00026122,3.872e-05,0.0,0 STARLINK-5187,1 54065U 22136Q   23265.13355614  .00003872  00000-0  26122-3 0  9996,2 54065  53.2174  62.2345 0001255  70.8347 289.2781 15.08845337 51522,6917.864,95.437,540.597,538.861,0.0
54065.0,STARLINK-5187,PAYLOAD,2023-09-22 17:30:47,15.08850666,0.0001315,53.2179,59.5587,70.6838,289.4296,0.00033009,4.971e-05,0.0,0 STARLINK-5187,1 54065U 22136Q   23265.72971402  .00004971  00000-0  33009-3 0  9993,2 54065  53.2179  59.5587 0001315  70.6838 289.4296 15.08850666 51135,6917.848,95.437,540.622,538.803,0.0
54065.0,STARLINK-5187,PAYLOAD,2023-09-22 22:16:56,15.08859331,0.0001317,53.2178,58.6655,67.4483,292.6649,0.00042469,6.481e-05,0.0,0 STARLINK-5187,1 54065U 22136Q   23265.92842901  .00006481  00000-0  42469-3 0  9994,2 54065  53.2178  58.6655 0001317  67.4483 292.6649 15.08859331 51644,6917.821,95.436,540.597,538.775,0.0
54065.0,STARLINK-5187,PAYLOAD,2023-09-23 17:21:34,15.08845456,0.0001164,53.2165,55.0982,83.8225,276.29,4.9399e-05,4.99e-06,0.0,0 STARLINK-5187,1 54065U 22136Q   23266.72331192  .00000499  00000-0  49399-4 0  9991,2 54065  53.2165  55.0982 0001164  83.8225 276.2900 15.08845456 51764,6917.864,95.437,540.534,538.923,0.0
54065.0,STARLINK-5187,PAYLOAD,2023-09-24 10:50:49,15.08838987,0.0001188,53.2174,51.8268,76.5264,283.5861,9.9753e-05,1.3e-05,0.0,0 STARLINK-5187,1 54065U 22136Q   23267.45195622  .00001300  00000-0  99753-4 0  9999,2 54065  53.2174  51.8268 0001188  76.5264 283.5861 15.08838987 51873,6917.883,95.438,540.57,538.927,0.0
54065.0,STARLINK-5187,PAYLOAD,2023-09-24 14:01:35,15.08843147,0.0001275,53.2176,51.2316,78.5087,281.6048,0.00022921,3.362e-05,0.0,0 STARLINK-5187,1 54065U 22136Q   23267.58443409  .00003362  00000-0  22921-3 0  9994,2 54065  53.2176  51.2316 0001275  78.5087 281.6048 15.08843147 51415,6917.871,95.437,540.618,538.854,0.0
54065.0,STARLINK-5187,PAYLOAD,2023-09-24 17:12:21,15.08849196,0.0001159,53.2175,50.637,74.599,285.5131,0.00057749,8.917e-05,0.0,0 STARLINK-5187,1 54065U 22136Q   23267.71691443  .00008917  00000-0  57749-3 0  9999,2 54065  53.2175  50.6370 0001159  74.5990 285.5131 15.08849196 51435,6917.852,95.437,540.519,538.916,0.0
54065.0,STARLINK-5187,PAYLOAD,2023-09-25 09:06:13,15.08849643,0.0001338,53.2166,47.6649,86.283,273.8315,0.00045215,6.917e-05,0.0,0 STARLINK-5187,1 54065U 22136Q   23268.37931727  .00006917  00000-0  45215-3 0  9997,2 54065  53.2166  47.6649 0001338  86.2830 273.8315 15.08849643 52018,6917.851,95.437,540.642,538.79,0.0
54065.0,STARLINK-5187,PAYLOAD,2023-09-25 17:03:08,15.08858876,0.0001195,53.217,46.1764,85.7052,274.4076,0.00075722,0.0001179,0.0,0 STARLINK-5187,1 54065U 22136Q   23268.71051328  .00011790  00000-0  75722-3 0  9996,2 54065  53.2170  46.1764 0001195  85.7052 274.4076 15.08858876 51586,6917.823,95.436,540.514,538.861,0.0
54065.0,STARLINK-5187,PAYLOAD,2023-09-26 08:57:00,15.08836122,0.0001299,53.2181,43.2026,94.2124,265.9017,0.00010662,1.409e-05,0.0,0 STARLINK-5187,1 54065U 22136Q   23269.37292140  .00001409  00000-0  10662-3 0  9996,2 54065  53.2181  43.2026 0001299  94.2124 265.9017 15.08836122 52162,6917.892,95.438,540.656,538.859,0.0
54065.0,STARLINK-5187,PAYLOAD,2023-09-26 13:43:09,15.08839834,0.0001242,53.218,42.3104,98.8169,261.2964,0.00029114,4.349e-05,0.0,0 STARLINK-5187,1 54065U 22136Q   23269.57164149  .00004349  00000-0  29114-3 0  9993,2 54065  53.2180  42.3104 0001242  98.8169 261.2964 15.08839834 51718,6917.881,95.438,540.605,538.887,0.0
54065.0,STARLINK-5187,PAYLOAD,2023-09-26 15:18:33,15.08841551,0.0001366,53.2178,42.0129,89.6068,270.5081,0.00037746,5.725e-05,0.0,0 STARLINK-5187,1 54065U 22136Q   23269.63788228  .00005725  00000-0  37746-3 0  9999,2 54065  53.2178  42.0129 0001366  89.6068 270.5081 15.08841551 51725,6917.876,95.437,540.686,538.796,0.0
54065.0,STARLINK-5187,PAYLOAD,2023-09-27 11:58:33,15.08846581,0.0001412,53.2168,38.1482,98.8498,261.2654,0.00047511,7.283e-05,0.0,0 STARLINK-5187,1 54065U 22136Q   23270.49900235  .00007283  00000-0  47511-3 0  9991,2 54065  53.2168  38.1482 0001412  98.8498 261.2654 15.08846581 51858,6917.86,95.437,540.702,538.748,0.0
54065.0,STARLINK-5187,PAYLOAD,2023-09-27 15:09:19,15.08852544,0.0001559,53.2186,37.5529,96.3071,263.8099,0.00059918,9.264e-05,0.0,0 STARLINK-5187,1 54065U 22136Q   23270.63148087  .00009264  00000-0  59918-3 0  9991,2 54065  53.2186  37.5529 0001559  96.3071 263.8099 15.08852544 52358,6917.842,95.437,540.786,538.629,0.0
54065.0,STARLINK-5187,PAYLOAD,2023-09-28 11:49:20,15.08843815,0.0001471,53.218,33.6865,95.0863,265.0297,0.00017429,2.487e-05,0.0,0 STARLINK-5187,1 54065U 22136Q   23271.49260186  .00002487  00000-0  17429-3 0  9992,2 54065  53.2180  33.6865 0001471  95.0863 265.0297 15.08843815 52489,6917.869,95.437,540.751,538.716,0.0
54065.0,STARLINK-5187,PAYLOAD,2023-09-28 15:00:07,15.08843653,0.0001425,53.2186,33.0913,95.8999,264.2156,0.00016041,2.266e-05,0.0,0 STARLINK-5187,1 54065U 22136Q   23271.62508180  .00002266  00000-0  16041-3 0  9990,2 54065  53.2186  33.0913 0001425  95.8999 264.2156 15.08843653 52025,6917.869,95.437,540.72,538.748,0.0
54065.0,STARLINK-5187,PAYLOAD,2023-09-29 13:15:31,15.08842282,0.0001522,53.2192,28.9302,93.2975,266.8192,0.00010719,1.418e-05,0.0,0 STARLINK-5187,1 54065U 22136Q   23272.55244366  .00001418  00000-0  10719-3 0  9990,2 54065  53.2192  28.9302 0001522  93.2975 266.8192 15.08842282 52644,6917.873,95.437,540.791,538.686,0.0
54065.0,STARLINK-5187,PAYLOAD,2023-09-30 00:23:12,15.08855082,0.000157,53.2195,26.8445,103.0185,257.0982,0.00035206,5.322e-05,0.0,0 STARLINK-5187,1 54065U 22136Q   23273.01611606  .00005322  00000-0  35206-3 0  9993,2 54065  53.2195  26.8445 0001570 103.0185 257.0982 15.08855082 52717,6917.834,95.437,540.785,538.613,0.0
